[
  {
    "CCSDS_OMM_VERS": "3.0",
    "COMMENT": "GENERATED VIA SPACE-TRACK.ORG API",
    "CREATION_DATE": "2026-02-19T17:59:09",
    "ORIGINATOR": "18 SPCS",
    "OBJECT_NAME": "STARLINK-5836",
    "OBJECT_ID": "2023-061N",
    "CENTER_NAME": "EARTH",
    "REF_FRAME": "TEME",
    "TIME_SYSTEM": "UTC",
    "MEAN_ELEMENT_THEORY": "SGP4",
    "EPOCH": "2026-02-19T15:27:07.946208",
    "MEAN_MOTION": "15.02547808",
    "ECCENTRICITY": "0.00033992",
    "INCLINATION": "43.0083",
    "RA_OF_ASC_NODE": "295.2079",
    "ARG_OF_PERICENTER": "248.5930",
    "MEAN_ANOMALY": "111.4550",
    "EPHEMERIS_TYPE": "0",
    "CLASSIFICATION_TYPE": "U",
    "NORAD_CAT_ID": "56386",
    "ELEMENT_SET_NO": "999",
    "REV_AT_EPOCH": "15404",
    "BSTAR": "0.00006282015400",
    "MEAN_MOTION_DOT": "0.00000645",
    "MEAN_MOTION_DDOT": "0.0000000000000",
    "SEMIMAJOR_AXIS": "6937.180",
    "PERIOD": "95.837",
    "APOAPSIS": "561.403",
    "PERIAPSIS": "556.687",
    "OBJECT_TYPE": "PAYLOAD",
    "RCS_SIZE": "LARGE",
    "COUNTRY_CODE": "US",
    "LAUNCH_DATE": "2023-05-04",
    "SITE": "AFETR",
    "DECAY_DATE": null,
    "FILE": "5039972",
    "GP_ID": "313177488",
    "TLE_LINE0": "0 STARLINK-5836",
    "TLE_LINE1": "1 56386U 23061N   26050.64384197  .00000645  00000-0  62820-4 0  9992",
    "TLE_LINE2": "2 56386  43.0083 295.2079 0003399 248.5930 111.4550 15.02547808154048"
  },
  {
    "CCSDS_OMM_VERS": "3.0",
    "COMMENT": "GENERATED VIA SPACE-TRACK.ORG API",
    "CREATION_DATE": "2026-02-19T17:59:09",
    "ORIGINATOR": "18 SPCS",
    "OBJECT_NAME": "STARLINK-30274",
    "OBJECT_ID": "2023-124K",
    "CENTER_NAME": "EARTH",
    "REF_FRAME": "TEME",
    "TIME_SYSTEM": "UTC",
    "MEAN_ELEMENT_THEORY": "SGP4",
    "EPOCH": "2026-02-19T15:27:02.257632",
    "MEAN_MOTION": "15.30186105",
    "ECCENTRICITY": "0.00012738",
    "INCLINATION": "53.1595",
    "RA_OF_ASC_NODE": "290.7718",
    "ARG_OF_PERICENTER": "74.7186",
    "MEAN_ANOMALY": "285.3955",
    "EPHEMERIS_TYPE": "0",
    "CLASSIFICATION_TYPE": "U",
    "NORAD_CAT_ID": "57672",
    "ELEMENT_SET_NO": "999",
    "REV_AT_EPOCH": "14080",
    "BSTAR": "0.00001192967500",
    "MEAN_MOTION_DOT": "-0.00000006",
    "MEAN_MOTION_DDOT": "0.0000000000000",
    "SEMIMAJOR_AXIS": "6853.394",
    "PERIOD": "94.106",
    "APOAPSIS": "476.132",
    "PERIAPSIS": "474.386",
    "OBJECT_TYPE": "PAYLOAD",
    "RCS_SIZE": "LARGE",
    "COUNTRY_CODE": "US",
    "LAUNCH_DATE": "2023-08-22",
    "SITE": "AFWTR",
    "DECAY_DATE": null,
    "FILE": "5039972",
    "GP_ID": "313178980",
    "TLE_LINE0": "0 STARLINK-30274",
    "TLE_LINE1": "1 57672U 23124K   26050.64377613 -.00000006  00000-0  11930-4 0  9994",
    "TLE_LINE2": "2 57672  53.1595 290.7718 0001274  74.7186 285.3955 15.30186105140808"
  },
  {
    "CCSDS_OMM_VERS": "3.0",
    "COMMENT": "GENERATED VIA SPACE-TRACK.ORG API",
    "CREATION_DATE": "2026-02-19T17:59:09",
    "ORIGINATOR": "18 SPCS",
    "OBJECT_NAME": "GLOBALSTAR M059",
    "OBJECT_ID": "1999-058B",
    "CENTER_NAME": "EARTH",
    "REF_FRAME": "TEME",
    "TIME_SYSTEM": "UTC",
    "MEAN_ELEMENT_THEORY": "SGP4",
    "EPOCH": "2026-02-19T15:27:02.111616",
    "MEAN_MOTION": "11.99994543",
    "ECCENTRICITY": "0.00013702",
    "INCLINATION": "51.9993",
    "RA_OF_ASC_NODE": "257.7168",
    "ARG_OF_PERICENTER": "91.8051",
    "MEAN_ANOMALY": "310.5606",
    "EPHEMERIS_TYPE": "0",
    "CLASSIFICATION_TYPE": "U",
    "NORAD_CAT_ID": "25944",
    "ELEMENT_SET_NO": "999",
    "REV_AT_EPOCH": "60375",
    "BSTAR": "0.00033534099000",
    "MEAN_MOTION_DOT": "-0.00000059",
    "MEAN_MOTION_DDOT": "0.0000000000000",
    "SEMIMAJOR_AXIS": "8059.022",
    "PERIOD": "120.001",
    "APOAPSIS": "1681.991",
    "PERIAPSIS": "1679.782",
    "OBJECT_TYPE": "PAYLOAD",
    "RCS_SIZE": "LARGE",
    "COUNTRY_CODE": "GLOB",
    "LAUNCH_DATE": "1999-10-18",
    "SITE": "TTMTR",
    "DECAY_DATE": null,
    "FILE": "5039972",
    "GP_ID": "313161905",
    "TLE_LINE0": "0 GLOBALSTAR M059",
    "TLE_LINE1": "1 25944U 99058B   26050.64377444 -.00000059  00000-0  33534-3 0  9993",
    "TLE_LINE2": "2 25944  51.9993 257.7168 0001370  91.8051 310.5606 11.99994543603759"
  },
  {
    "CCSDS_OMM_VERS": "3.0",
    "COMMENT": "GENERATED VIA SPACE-TRACK.ORG API",
    "CREATION_DATE": "2026-02-19T17:59:09",
    "ORIGINATOR": "18 SPCS",
    "OBJECT_NAME": "COSMOS 714",
    "OBJECT_ID": "1975-016D",
    "CENTER_NAME": "EARTH",
    "REF_FRAME": "TEME",
    "TIME_SYSTEM": "UTC",
    "MEAN_ELEMENT_THEORY": "SGP4",
    "EPOCH": "2026-02-19T15:26:57.611040",
    "MEAN_MOTION": "12.49301472",
    "ECCENTRICITY": "0.00300956",
    "INCLINATION": "74.0021",
    "RA_OF_ASC_NODE": "112.5628",
    "ARG_OF_PERICENTER": "322.1589",
    "MEAN_ANOMALY": "206.2510",
    "EPHEMERIS_TYPE": "0",
    "CLASSIFICATION_TYPE": "U",
    "NORAD_CAT_ID": "7681",
    "ELEMENT_SET_NO": "999",
    "REV_AT_EPOCH": "32484",
    "BSTAR": "0.00016626897000",
    "MEAN_MOTION_DOT": "0.00000009",
    "MEAN_MOTION_DDOT": "0.0000000000000",
    "SEMIMAJOR_AXIS": "7845.555",
    "PERIOD": "115.264",
    "APOAPSIS": "1491.032",
    "PERIAPSIS": "1443.808",
    "OBJECT_TYPE": "PAYLOAD",
    "RCS_SIZE": "MEDIUM",
    "COUNTRY_CODE": "CIS",
    "LAUNCH_DATE": "1975-02-28",
    "SITE": "PKMTR",
    "DECAY_DATE": null,
    "FILE": "5039972",
    "GP_ID": "313156874",
    "TLE_LINE0": "0 COSMOS 714",
    "TLE_LINE1": "1 07681U 75016D   26050.64372235  .00000009  00000-0  16627-3 0  9990",
    "TLE_LINE2": "2 07681  74.0021 112.5628 0030096 322.1589 206.2510 12.49301472324841"
  },
  {
    "CCSDS_OMM_VERS": "3.0",
    "COMMENT": "GENERATED VIA SPACE-TRACK.ORG API",
    "CREATION_DATE": "2026-02-19T17:59:09",
    "ORIGINATOR": "18 SPCS",
    "OBJECT_NAME": "ONEWEB-0210",
    "OBJECT_ID": "2021-045W",
    "CENTER_NAME": "EARTH",
    "REF_FRAME": "TEME",
    "TIME_SYSTEM": "UTC",
    "MEAN_ELEMENT_THEORY": "SGP4",
    "EPOCH": "2026-02-19T15:26:36.622752",
    "MEAN_MOTION": "13.15548804",
    "ECCENTRICITY": "0.00006875",
    "INCLINATION": "87.8971",
    "RA_OF_ASC_NODE": "282.6473",
    "ARG_OF_PERICENTER": "109.6471",
    "MEAN_ANOMALY": "250.4733",
    "EPHEMERIS_TYPE": "0",
    "CLASSIFICATION_TYPE": "U",
    "NORAD_CAT_ID": "48787",
    "ELEMENT_SET_NO": "999",
    "REV_AT_EPOCH": "22886",
    "BSTAR": "0.00020897093000",
    "MEAN_MOTION_DOT": "0.00000091",
    "MEAN_MOTION_DDOT": "0.0000000000000",
    "SEMIMAJOR_AXIS": "7579.907",
    "PERIOD": "109.460",
    "APOAPSIS": "1202.293",
    "PERIAPSIS": "1201.251",
    "OBJECT_TYPE": "PAYLOAD",
    "RCS_SIZE": "LARGE",
    "COUNTRY_CODE": "UK",
    "LAUNCH_DATE": "2021-05-28",
    "SITE": "VOSTO",
    "DECAY_DATE": null,
    "FILE": "5039972",
    "GP_ID": "313173516",
    "TLE_LINE0": "0 ONEWEB-0210",
    "TLE_LINE1": "1 48787U 21045W   26050.64347943  .00000091  00000-0  20897-3 0  9998",
    "TLE_LINE2": "2 48787  87.8971 282.6473 0000687 109.6471 250.4733 13.15548804228866"
  },
  {
    "CCSDS_OMM_VERS": "3.0",
    "COMMENT": "GENERATED VIA SPACE-TRACK.ORG API",
    "CREATION_DATE": "2026-02-19T17:59:09",
    "ORIGINATOR": "18 SPCS",
    "OBJECT_NAME": "GLOBALSTAR M068",
    "OBJECT_ID": "2007-048D",
    "CENTER_NAME": "EARTH",
    "REF_FRAME": "TEME",
    "TIME_SYSTEM": "UTC",
    "MEAN_ELEMENT_THEORY": "SGP4",
    "EPOCH": "2026-02-19T15:26:34.816992",
    "MEAN_MOTION": "12.62840823",
    "ECCENTRICITY": "0.00010305",
    "INCLINATION": "51.9872",
    "RA_OF_ASC_NODE": "267.9184",
    "ARG_OF_PERICENTER": "19.6263",
    "MEAN_ANOMALY": "18.3094",
    "EPHEMERIS_TYPE": "0",
    "CLASSIFICATION_TYPE": "U",
    "NORAD_CAT_ID": "32266",
    "ELEMENT_SET_NO": "999",
    "REV_AT_EPOCH": "84882",
    "BSTAR": "0.00017527256000",
    "MEAN_MOTION_DOT": "-0.00000072",
    "MEAN_MOTION_DDOT": "0.0000000000000",
    "SEMIMAJOR_AXIS": "7789.378",
    "PERIOD": "114.029",
    "APOAPSIS": "1412.045",
    "PERIAPSIS": "1410.440",
    "OBJECT_TYPE": "PAYLOAD",
    "RCS_SIZE": "LARGE",
    "COUNTRY_CODE": "GLOB",
    "LAUNCH_DATE": "2007-10-20",
    "SITE": "TTMTR",
    "DECAY_DATE": null,
    "FILE": "5039972",
    "GP_ID": "313165033",
    "TLE_LINE0": "0 GLOBALSTAR M068",
    "TLE_LINE1": "1 32266U 07048D   26050.64345853 -.00000072  00000-0  17527-3 0  9994",
    "TLE_LINE2": "2 32266  51.9872 267.9184 0001031  19.6263  18.3094 12.62840823848823"
  },
  {
    "CCSDS_OMM_VERS": "3.0",
    "COMMENT": "GENERATED VIA SPACE-TRACK.ORG API",
    "CREATION_DATE": "2026-02-19T17:59:09",
    "ORIGINATOR": "18 SPCS",
    "OBJECT_NAME": "HERMES-5",
    "OBJECT_ID": "2025-052BQ",
    "CENTER_NAME": "EARTH",
    "REF_FRAME": "TEME",
    "TIME_SYSTEM": "UTC",
    "MEAN_ELEMENT_THEORY": "SGP4",
    "EPOCH": "2026-02-19T15:26:30.852960",
    "MEAN_MOTION": "15.25504044",
    "ECCENTRICITY": "0.00042979",
    "INCLINATION": "97.4113",
    "RA_OF_ASC_NODE": "305.9920",
    "ARG_OF_PERICENTER": "179.6725",
    "MEAN_ANOMALY": "180.4517",
    "EPHEMERIS_TYPE": "0",
    "CLASSIFICATION_TYPE": "U",
    "NORAD_CAT_ID": "63834",
    "ELEMENT_SET_NO": "999",
    "REV_AT_EPOCH": "5201",
    "BSTAR": "0.00064634538000",
    "MEAN_MOTION_DOT": "0.00016326",
    "MEAN_MOTION_DDOT": "0.0000000000000",
    "SEMIMAJOR_AXIS": "6867.409",
    "PERIOD": "94.395",
    "APOAPSIS": "492.226",
    "PERIAPSIS": "486.323",
    "OBJECT_TYPE": "PAYLOAD",
    "RCS_SIZE": "SMALL",
    "COUNTRY_CODE": "IT",
    "LAUNCH_DATE": "2025-03-15",
    "SITE": "AFWTR",
    "DECAY_DATE": null,
    "FILE": "5039972",
    "GP_ID": "313184116",
    "TLE_LINE0": "0 HERMES-5",
    "TLE_LINE1": "1 63834U 25052BQ  26050.64341265  .00016326  00000-0  64635-3 0  9997",
    "TLE_LINE2": "2 63834  97.4113 305.9920 0004298 179.6725 180.4517 15.25504044 52013"
  }
]